[{"OBJECT_NAME":"HIBARI","OBJECT_ID":"2021-102F","EPOCH":"2026-02-01T15:32:24.059616","MEAN_MOTION":15.28626302,"ECCENTRICITY":0.00112833,"INCLINATION":97.3451,"RA_OF_ASC_NODE":80.2421,"ARG_OF_PERICENTER":328.8889,"MEAN_ANOMALY":31.1681,"EPHEMERIS_TYPE":0,"CLASSIFICATION_TYPE":"U","NORAD_CAT_ID":49400,"ELEMENT_SET_NO":999,"REV_AT_EPOCH":23346,"BSTAR":0.00036379083,"MEAN_MOTION_DOT":0.00010076,"MEAN_MOTION_DDOT":0},{"OBJECT_NAME":"KOSEN-1","OBJECT_ID":"2021-102H","EPOCH":"2026-02-01T21:55:52.605984","MEAN_MOTION":15.24644032,"ECCENTRICITY":0.00134319,"INCLINATION":97.3397,"RA_OF_ASC_NODE":77.7535,"ARG_OF_PERICENTER":331.6158,"MEAN_ANOMALY":28.4347,"EPHEMERIS_TYPE":0,"CLASSIFICATION_TYPE":"U","NORAD_CAT_ID":49402,"ELEMENT_SET_NO":999,"REV_AT_EPOCH":23339,"BSTAR":0.00031241044,"MEAN_MOTION_DOT":7.662e-5,"MEAN_MOTION_DDOT":0},{"OBJECT_NAME":"GLOBAL-14","OBJECT_ID":"2021-106A","EPOCH":"2026-02-01T23:40:05.384352","MEAN_MOTION":15.43733169,"ECCENTRICITY":0.00119918,"INCLINATION":42.0066,"RA_OF_ASC_NODE":10.5757,"ARG_OF_PERICENTER":171.5245,"MEAN_ANOMALY":188.5801,"EPHEMERIS_TYPE":0,"CLASSIFICATION_TYPE":"U","NORAD_CAT_ID":49469,"ELEMENT_SET_NO":999,"REV_AT_EPOCH":23718,"BSTAR":0.00049983091,"MEAN_MOTION_DOT":0.00022967,"MEAN_MOTION_DDOT":0},{"OBJECT_NAME":"GAOFEN-3 02","OBJECT_ID":"2021-109A","EPOCH":"2026-02-01T23:16:34.309056","MEAN_MOTION":14.42217686,"ECCENTRICITY":0.00035305,"INCLINATION":98.412,"RA_OF_ASC_NODE":42.9666,"ARG_OF_PERICENTER":53.698,"MEAN_ANOMALY":306.4535,"EPHEMERIS_TYPE":0,"CLASSIFICATION_TYPE":"U","NORAD_CAT_ID":49495,"ELEMENT_SET_NO":999,"REV_AT_EPOCH":22082,"BSTAR":2.1000345e-5,"MEAN_MOTION_DOT":2.6e-7,"MEAN_MOTION_DDOT":0},{"OBJECT_NAME":"GLOBAL-12","OBJECT_ID":"2021-115BA","EPOCH":"2026-02-01T23:06:27.298080","MEAN_MOTION":15.45647045,"ECCENTRICITY":0.00016808,"INCLINATION":53.1983,"RA_OF_ASC_NODE":330.9373,"ARG_OF_PERICENTER":47.2379,"MEAN_ANOMALY":312.877,"EPHEMERIS_TYPE":0,"CLASSIFICATION_TYPE":"U","NORAD_CAT_ID":49772,"ELEMENT_SET_NO":999,"REV_AT_EPOCH":23493,"BSTAR":0.00061030113,"MEAN_MOTION_DOT":0.00029572,"MEAN_MOTION_DDOT":0},{"OBJECT_NAME":"GLOBAL-13","OBJECT_ID":"2021-115BB","EPOCH":"2026-02-01T23:27:51.442272","MEAN_MOTION":15.4054864,"ECCENTRICITY":0.00043958,"INCLINATION":53.2013,"RA_OF_ASC_NODE":334.7976,"ARG_OF_PERICENTER":81.432,"MEAN_ANOMALY":278.7184,"EPHEMERIS_TYPE":0,"CLASSIFICATION_TYPE":"U","NORAD_CAT_ID":49773,"ELEMENT_SET_NO":999,"REV_AT_EPOCH":23488,"BSTAR":0.00048849494,"MEAN_MOTION_DOT":0.00019799,"MEAN_MOTION_DDOT":0},{"OBJECT_NAME":"GLOBAL-17","OBJECT_ID":"2021-120A","EPOCH":"2026-02-01T11:13:01.872192","MEAN_MOTION":15.44875337,"ECCENTRICITY":0.00089298,"INCLINATION":41.9965,"RA_OF_ASC_NODE":133.6854,"ARG_OF_PERICENTER":10.6941,"MEAN_ANOMALY":349.409,"EPHEMERIS_TYPE":0,"CLASSIFICATION_TYPE":"U","NORAD_CAT_ID":49949,"ELEMENT_SET_NO":999,"REV_AT_EPOCH":23385,"BSTAR":0.0005214437,"MEAN_MOTION_DOT":0.00024909,"MEAN_MOTION_DDOT":0},{"OBJECT_NAME":"GLOBAL-16","OBJECT_ID":"2021-120B","EPOCH":"2026-02-01T14:02:27.117312","MEAN_MOTION":15.43422293,"ECCENTRICITY":0.00073741,"INCLINATION":41.9966,"RA_OF_ASC_NODE":134.5945,"ARG_OF_PERICENTER":356.8093,"MEAN_ANOMALY":3.27,"EPHEMERIS_TYPE":0,"CLASSIFICATION_TYPE":"U","NORAD_CAT_ID":49950,"ELEMENT_SET_NO":999,"REV_AT_EPOCH":23384,"BSTAR":0.00049040101,"MEAN_MOTION_DOT":0.00022253,"MEAN_MOTION_DDOT":0},{"OBJECT_NAME":"XW-3 (CAS-9)","OBJECT_ID":"2021-131B","EPOCH":"2026-02-01T22:59:44.162592","MEAN_MOTION":14.41200151,"ECCENTRICITY":0.00049437,"INCLINATION":98.5005,"RA_OF_ASC_NODE":126.1144,"ARG_OF_PERICENTER":135.3942,"MEAN_ANOMALY":224.7646,"EPHEMERIS_TYPE":0,"CLASSIFICATION_TYPE":"U","NORAD_CAT_ID":50466,"ELEMENT_SET_NO":999,"REV_AT_EPOCH":21563,"BSTAR":0.00017432351,"MEAN_MOTION_DOT":5.18e-6,"MEAN_MOTION_DDOT":0},{"OBJECT_NAME":"ION SCV-004","OBJECT_ID":"2022-002K","EPOCH":"2026-02-01T16:44:22.338528","MEAN_MOTION":15.28890213,"ECCENTRICITY":0.00091737,"INCLINATION":97.3043,"RA_OF_ASC_NODE":92.9077,"ARG_OF_PERICENTER":112.6384,"MEAN_ANOMALY":247.5828,"EPHEMERIS_TYPE":0,"CLASSIFICATION_TYPE":"U","NORAD_CAT_ID":50993,"ELEMENT_SET_NO":999,"REV_AT_EPOCH":22458,"BSTAR":0.00020640857,"MEAN_MOTION_DOT":5.726e-5,"MEAN_MOTION_DDOT":0},{"OBJECT_NAME":"ETV-A1","OBJECT_ID":"2022-002CE","EPOCH":"2026-02-01T23:35:48.417792","MEAN_MOTION":15.37488515,"ECCENTRICITY":0.00068464,"INCLINATION":97.3072,"RA_OF_ASC_NODE":99.8606,"ARG_OF_PERICENTER":109.3027,"MEAN_ANOMALY":250.8959,"EPHEMERIS_TYPE":0,"CLASSIFICATION_TYPE":"U","NORAD_CAT_ID":51060,"ELEMENT_SET_NO":999,"REV_AT_EPOCH":22504,"BSTAR":0.0003150212,"MEAN_MOTION_DOT":0.00011514,"MEAN_MOTION_DDOT":0},{"OBJECT_NAME":"BRO-5","OBJECT_ID":"2022-002CF","EPOCH":"2026-02-01T21:52:56.796672","MEAN_MOTION":15.42362731,"ECCENTRICITY":0.00068694,"INCLINATION":97.3169,"RA_OF_ASC_NODE":105.8606,"ARG_OF_PERICENTER":99.6061,"MEAN_ANOMALY":260.5962,"EPHEMERIS_TYPE":0,"CLASSIFICATION_TYPE":"U","NORAD_CAT_ID":51061,"ELEMENT_SET_NO":999,"REV_AT_EPOCH":22537,"BSTAR":0.00027330873,"MEAN_MOTION_DOT":0.00011718,"MEAN_MOTION_DDOT":0},{"OBJECT_NAME":"LUDI TANCE 1-01A (L-SAR 01A)","OBJECT_ID":"2022-007A","EPOCH":"2026-02-01T23:42:28.176768","MEAN_MOTION":14.88412009,"ECCENTRICITY":0.00015014,"INCLINATION":97.8105,"RA_OF_ASC_NODE":42.3398,"ARG_OF_PERICENTER":94.8169,"MEAN_ANOMALY":265.3219,"EPHEMERIS_TYPE":0,"CLASSIFICATION_TYPE":"U","NORAD_CAT_ID":51284,"ELEMENT_SET_NO":999,"REV_AT_EPOCH":21836,"BSTAR":7.47666e-7,"MEAN_MOTION_DOT":-4.7e-7,"MEAN_MOTION_DDOT":0},{"OBJECT_NAME":"INSPIRESAT 1","OBJECT_ID":"2022-013B","EPOCH":"2026-02-01T22:11:08.708640","MEAN_MOTION":15.69675741,"ECCENTRICITY":0.00046019,"INCLINATION":97.4567,"RA_OF_ASC_NODE":77.856,"ARG_OF_PERICENTER":158.9657,"MEAN_ANOMALY":201.1795,"EPHEMERIS_TYPE":0,"CLASSIFICATION_TYPE":"U","NORAD_CAT_ID":51657,"ELEMENT_SET_NO":999,"REV_AT_EPOCH":22125,"BSTAR":0.00068136534,"MEAN_MOTION_DOT":0.00081231,"MEAN_MOTION_DDOT":0},{"OBJECT_NAME":"LUDI TANCE 1-01B (L-SAR 01B)","OBJECT_ID":"2022-018A","EPOCH":"2026-02-01T22:54:00.450432","MEAN_MOTION":14.88410656,"ECCENTRICITY":0.00016037,"INCLINATION":97.8115,"RA_OF_ASC_NODE":42.2923,"ARG_OF_PERICENTER":91.6896,"MEAN_ANOMALY":268.4504,"EPHEMERIS_TYPE":0,"CLASSIFICATION_TYPE":"U","NORAD_CAT_ID":51822,"ELEMENT_SET_NO":999,"REV_AT_EPOCH":21359,"BSTAR":9.5242304e-5,"MEAN_MOTION_DOT":8.28e-6,"MEAN_MOTION_DDOT":0},{"OBJECT_NAME":"2022-019D","OBJECT_ID":"2022-019D","EPOCH":"2026-02-01T22:36:40.882176","MEAN_MOTION":15.55259395,"ECCENTRICITY":0.00066284,"INCLINATION":97.3753,"RA_OF_ASC_NODE":119.7771,"ARG_OF_PERICENTER":266.9581,"MEAN_ANOMALY":93.0915,"EPHEMERIS_TYPE":0,"CLASSIFICATION_TYPE":"U","NORAD_CAT_ID":51827,"ELEMENT_SET_NO":999,"REV_AT_EPOCH":21858,"BSTAR":0.00060940835,"MEAN_MOTION_DOT":0.00041329,"MEAN_MOTION_DDOT":0}]
