HIBARI                  
1 49400U 21102F   26032.64750069  .00010076  00000+0  36379-3 0  9997
2 49400  97.3451  80.2421 0011283 328.8889  31.1681 15.28626302233469
KOSEN-1                 
1 49402U 21102H   26032.91380331  .00007662  00000+0  31241-3 0  9990
2 49402  97.3397  77.7535 0013431 331.6158  28.4347 15.24644032233391
GLOBAL-14               
1 49469U 21106A   26032.98617343  .00022967  00000+0  49983-3 0  9997
2 49469  42.0066  10.5757 0011991 171.5245 188.5801 15.43733169237187
GAOFEN-3 02             
1 49495U 21109A   26032.96984154  .00000026  00000+0  21000-4 0  9997
2 49495  98.4120  42.9666 0003530  53.6980 306.4535 14.42217686220823
GLOBAL-12               
1 49772U 21115BA  26032.96281595  .00029572  00000+0  61030-3 0  9994
2 49772  53.1983 330.9373 0001680  47.2379 312.8770 15.45647045234935
GLOBAL-13               
1 49773U 21115BB  26032.97767873  .00019799  00000+0  48849-3 0  9997
2 49773  53.2013 334.7976 0004395  81.4320 278.7184 15.40548640234883
GLOBAL-17               
1 49949U 21120A   26032.46738278  .00024909  00000+0  52144-3 0  9991
2 49949  41.9965 133.6854 0008929  10.6941 349.4090 15.44875337233857
GLOBAL-16               
1 49950U 21120B   26032.58503608  .00022253  00000+0  49040-3 0  9994
2 49950  41.9966 134.5945 0007374 356.8093   3.2700 15.43422293233847
XW-3 (CAS-9)            
1 50466U 21131B   26032.95815003  .00000518  00000+0  17432-3 0  9996
2 50466  98.5005 126.1144 0004943 135.3942 224.7646 14.41200151215633
ION SCV-004             
1 50993U 22002K   26032.69748077  .00005726  00000+0  20641-3 0  9998
2 50993  97.3043  92.9077 0009173 112.6384 247.5828 15.28890213224589
ETV-A1                  
1 51060U 22002CE  26032.98319928  .00011514  00000+0  31502-3 0  9995
2 51060  97.3072  99.8606 0006846 109.3027 250.8959 15.37488515225044
BRO-5                   
1 51061U 22002CF  26032.91176848  .00011718  00000+0  27331-3 0  9992
2 51061  97.3169 105.8606 0006869  99.6061 260.5962 15.42362731225379
LUDI TANCE 1-01A (L-SA*)
1 51284U 22007A   26032.98782612 -.00000047  00000+0  74767-6 0  9995
2 51284  97.8105  42.3398 0001501  94.8169 265.3219 14.88412009218360
INSPIRESAT 1            
1 51657U 22013B   26032.92440635  .00081231  00000+0  68137-3 0  9990
2 51657  97.4567  77.8560 0004601 158.9657 201.1795 15.69675741221257
LUDI TANCE 1-01B (L-SA*)
1 51822U 22018A   26032.95417188  .00000828  00000+0  95242-4 0  9990
2 51822  97.8115  42.2923 0001603  91.6896 268.4504 14.88410656213594
2022-019D               
1 51827U 22019D   26032.94213984  .00041329  00000+0  60941-3 0  9991
2 51827  97.3753 119.7771 0006628 266.9581  93.0915 15.55259395218581
